{
    "links": {
        "self": "http://www.neowsapp.com/rest/v1/neo/3746627?api_key=iIulBulltgU6a56xZRHN4H3l9WmuAYTsLGpBGhQ2"
    },
    "id": "3746627",
    "neo_reference_id": "3746627",
    "name": "(2016 EL156)",
    "designation": "2016 EL156",
    "nasa_jpl_url": "http://ssd.jpl.nasa.gov/sbdb.cgi?sstr=3746627",
    "absolute_magnitude_h": 23.2,
    "estimated_diameter": {
        "kilometers": {
            "estimated_diameter_min": 0.0608912622,
            "estimated_diameter_max": 0.1361570015
        },
        "meters": {
            "estimated_diameter_min": 60.8912622106,
            "estimated_diameter_max": 136.1570015386
        },
        "miles": {
            "estimated_diameter_min": 0.0378360645,
            "estimated_diameter_max": 0.0846040122
        },
        "feet": {
            "estimated_diameter_min": 199.7744887109,
            "estimated_diameter_max": 446.7093369279
        }
    },
    "is_potentially_hazardous_asteroid": false,
    "close_approach_data": [
        {
            "close_approach_date": "2016-03-05",
            "close_approach_date_full": "2016-Mar-05 19:08",
            "epoch_date_close_approach": 1457204880000,
            "relative_velocity": {
                "kilometers_per_second": "25.3730933274",
                "kilometers_per_hour": "91343.1359785374",
                "miles_per_hour": "56757.0724639973"
            },
            "miss_distance": {
                "astronomical": "0.0724111859",
                "lunar": "28.1679513151",
                "kilometers": "10832559.174814033",
                "miles": "6731040.1487503354"
            },
            "orbiting_body": "Earth"
        }
    ],
    "orbital_data": {
        "orbit_id": "7",
        "orbit_determination_date": "2017-04-06 08:27:30",
        "first_observation_date": "2016-03-13",
        "last_observation_date": "2016-03-18",
        "data_arc_in_days": 5,
        "observations_used": 26,
        "orbit_uncertainty": "9",
        "minimum_orbit_intersection": ".0347775",
        "jupiter_tisserand_invariant": "3.535",
        "epoch_osculation": "2457462.5",
        "eccentricity": ".507746312363342",
        "semi_major_axis": "1.861269256276048",
        "inclination": "44.14476826783115",
        "ascending_node_longitude": "168.7893487775356",
        "orbital_period": "927.4964002203644",
        "perihelion_distance": ".9162166550866244",
        "perihelion_argument": "312.1544156731914",
        "aphelion_distance": "2.806321857465471",
        "perihelion_time": "2457415.590938178934",
        "mean_anomaly": "18.20736150735626",
        "mean_motion": ".3881416681665475",
        "equinox": "J2000",
        "orbit_class": {
            "orbit_class_type": "APO",
            "orbit_class_description": "Near-Earth asteroid orbits which cross the Earth’s orbit similar to that of 1862 Apollo",
            "orbit_class_range": "a (semi-major axis) > 1.0 AU; q (perihelion) < 1.017 AU"
        }
    },
    "is_sentry_object": false
}